satname,norad_id,inclination_deg,eccentricity,mean_motion_rev_per_day,perigee_km,apogee_km,l1,l2
STARLINK-1234,45190,53.032,0.0004668,15.87744511,305.48662255486124,311.72936768230466,1 45190U 20012N   26204.00002315  .00088001  00000+0  32046-3 0  9993,2 45190  53.0320  13.0466 0004668 296.8270 203.5504 15.87744511  6022
STARLINK-1269,45197,53.1546,0.0003479,15.38468529,448.26164107308887,453.01310228090097,1 45197U 20012V   26203.79177161  .00031344  00000+0  82051-3 0  9996,2 45197  53.1546 128.8912 0003479  70.5734 289.5646 15.38468529355646
STARLINK-1154,45198,53.0407,0.000369,15.67269883,364.2296375793303,369.2073409304003,1 45198U 20012W   26203.92025034  .00054148  00000+0  49580-3 0  9990,2 45198  53.0407  73.2678 0003690 115.0379 245.1020 15.67269883356378
STARLINK-1199,45201,53.1542,0.000543,15.38479883,446.89576777083767,454.31178025141253,1 45201U 20012Z   26203.76338095  .00036097  00000+0  94223-3 0  9998,2 45201  53.1542 113.2995 0005430  69.2262 290.9324 15.38479883355887
STARLINK-1209,45206,53.035,0.0001723,15.75427696,342.25627480055664,344.57252141234494,1 45206U 20012AE  26202.25314085  .00062405  00000+0  40486-3 0  9993,2 45206  53.0350  39.7942 0001723 267.1207  92.9615 15.75427696355802
STARLINK-1231,45212,53.034,0.0003238,15.30512947,472.06201241425606,476.4996381979254,1 45212U 20012AL  26203.77433013  .00022534  00000+0  76313-3 0  9998,2 45212  53.0340 110.3908 0003238 121.6759 238.4557 15.30512947355857
STARLINK-1271,45217,53.1545,0.000497,15.3866083,446.6747707231816,453.4620068796494,1 45217U 20012AR  26203.75549473  .00036297  00000+0  94187-3 0  9999,2 45217  53.1545 113.4002 0004970  74.6744 285.4809 15.38660830355882
STARLINK-1191,45222,53.1524,0.0002317,15.43242883,434.96694874608784,438.1248728069422,1 45222U 20012AW  26203.93579602  .00045610  00000+0  10138-2 0  9994,2 45222  53.1524  84.1768 0002317  59.3265 300.7969 15.43242883356316
STARLINK-1212,45223,53.0389,0.0001502,15.74324378,345.54438116263736,347.56447846815354,1 45223U 20012AX  26203.92928137  .00082303  00000+0  55743-3 0  9997,2 45223  53.0389  47.1642 0001502 250.9461 109.1395 15.74324378356809
STARLINK-1215,45225,53.1542,0.0004752,15.3879535,446.42586550416127,452.91501369475645,1 45225U 20012AZ  26203.94591119  .00050140  00000+0  12892-2 0  9998,2 45225  53.1542  86.7281 0004752  77.2269 282.9267 15.38795350356234
STARLINK-1221,45227,53.0654,0.0002858,15.46710106,424.41316974719575,428.3026190288274,1 45227U 20012BB  26202.68898890  .00018376  00000+0  36940-3 0  9992,2 45227  53.0654 352.4139 0002858  75.4330 284.6994 15.46710106357410
STARLINK-1222,45228,53.0518,9.1e-05,15.60143027,386.62791946405287,387.8592187276281,1 45228U 20012BC  26204.00002315  .00039102  00000+0  47634-3 0  9992,2 45228  53.0518  49.8295 0000910  58.5340 218.7313 15.60143027  5950
STARLINK-1226,45229,53.152,0.0004113,15.48733157,417.6347179487948,423.2272199600566,1 45229U 20012BD  26203.70087584  .00048463  00000+0  89161-3 0  9991,2 45229  53.1520  80.9064 0004113  80.4906 279.6568 15.48733157356239
STARLINK-1227,45230,53.1505,0.0004287,15.48663625,417.71982913650845,423.5490957884231,1 45230U 20012BE  26202.41750198  .00041831  00000+0  77322-3 0  9996,2 45230  53.1505  87.1095 0004287  68.2913 291.8552 15.48663625356153
STARLINK-1246,45235,53.1534,0.0005303,15.38695043,446.34622767737255,453.5881149614743,1 45235U 20012BK  26203.07950793  .00037027  00000+0  95940-3 0  9995,2 45235  53.1534 131.8231 0005303  36.6498 323.4869 15.38695043355594
STARLINK-1270,45237,53.0386,0.0001095,15.73246556,348.8887537107348,350.36213368590506,1 45237U 20012BM  26203.87057803  .00076773  00000+0  54526-3 0  9991,2 45237  53.0386  49.4644 0001095 246.7742 113.3160 15.73246556356762
STARLINK-1279,45360,53.0295,0.0003031,15.89363726,302.0402914746146,306.0910427314129,1 45360U 20019A   26204.00002315  .00204482  00000+0  67481-3 0  9993,2 45360  53.0295 147.3696 0003031  81.0922  44.7788 15.89363726  6025
STARLINK-1301,45361,53.0279,0.0004897,15.91119945,295.8778513227244,302.4175839751888,1 45361U 20019B   26204.00002315  .00176767  22628-4  55403-3 0  9994,2 45361  53.0279 149.1644 0004897  80.0199 216.0659 15.91119945  6034
STARLINK-1262,45366,53.1516,0.0003032,15.37691633,450.86608795605116,455.00845139318153,1 45366U 20019G   26203.85985773  .00040296  00000+0  10775-2 0  9993,2 45366  53.1516 254.9231 0003032 328.3844  31.6977 15.37691633350480
STARLINK-1273,45367,53.0404,0.0003327,15.63351672,375.7357301432703,380.2312527182685,1 45367U 20019H   26203.46566541  .00066918  00000+0  71365-3 0  9991,2 45367  53.0404 224.1402 0003327  16.7576 343.3547 15.63351672350854
STARLINK-1276,45368,53.0695,9.15e-05,15.16355807,516.2346204884561,517.4964059483746,1 45368U 20019J   26203.92444593  .00025907  00000+0  13304-2 0  9996,2 45368  53.0695 273.0815 0000915  34.1657 325.9395 15.16355807350211
STARLINK-1277,45369,53.0389,0.0003919,15.71598708,351.68895175946,356.9658573597535,1 45369U 20019K   26203.75210285  .00063057  00000+0  48171-3 0  9996,2 45369  53.0389 213.9894 0003919  43.0653 317.0670 15.71598708351022
STARLINK-1281,45370,53.1536,0.0002046,15.38497922,449.1532461442812,451.9475450265554,1 45370U 20019L   26203.84727726  .00037735  00000+0  98406-3 0  9991,2 45370  53.1536 254.3613 0002046 321.6133  38.4726 15.38497922350490
STARLINK-1300,45374,53.1552,0.0002415,15.3911544,447.0750666907634,450.3724404347349,1 45374U 20019Q   26203.32228684  .00018037  00000+0  46746-3 0  9991,2 45374  53.1552 256.5482 0002415 330.3200  29.7668 15.39115440350415
STARLINK-1302,45375,53.0417,0.0001171,15.71800801,352.9620074591139,354.53861546745884,1 45375U 20019R   26203.72037549  .00058637  00000+0  44484-3 0  9991,2 45375  53.0417 209.9296 0001171  56.3357 303.7772 15.71800801351078
STARLINK-1304,45376,53.0393,0.0002127,15.67234584,365.3851133275248,368.2544179356246,1 45376U 20019S   26203.46029471  .00047514  00000+0  43674-3 0  9990,2 45376  53.0393 213.8956 0002127   4.6191 355.4844 15.67234584350991
STARLINK-1305,45377,53.0362,0.000742,15.7742694,332.7507215279493,342.7170739401863,1 45377U 20019T   26203.66402769  .00086671  00000+0  51124-3 0  9994,2 45377  53.0362 188.4197 0007420  45.1611 315.0011 15.77426940351371
STARLINK-1319,45379,53.032,0.000378,15.86133912,310.6045181629552,315.6631189017653,1 45379U 20019V   26203.93273897  .00149990  00000+0  58494-3 0  9995,2 45379  53.0320 176.3685 0003780  61.9398 298.2007 15.86133912351560
STARLINK-1266,45383,53.0421,0.0005131,15.69839844,355.89820495011554,362.8122194582793,1 45383U 20019Z   26203.27770019  .00056796  00000+0  46762-3 0  9991,2 45383  53.0421 198.9471 0005131  36.0872 324.0489 15.69839844351180
STARLINK-1267,45384,53.0411,0.0003081,15.74854306,342.9743899509331,347.1172151938781,1 45384U 20019AA  26203.67009879  .00076384  00000+0  50620-3 0  9998,2 45384  53.0411 187.2433 0003081  60.7656 299.3671 15.74854306351380
STARLINK-1272,45386,53.0367,0.0002837,15.80286906,327.7256420220974,331.53162824347146,1 45386U 20019AC  26203.62160578  .00105304  00000+0  54486-3 0  9998,2 45386  53.0367 164.7000 0002837  84.2208 275.9137 15.80286906351697
STARLINK-1274,45387,53.015,0.0005208,15.70658236,353.50696023084856,360.52229416573846,1 45387U 20019AD  26203.27905368  .00136463  00000+0  10691-2 0  9993,2 45387  53.0150 168.5911 0005208   1.5706 358.5326 15.70658236351608
STARLINK-1280,45388,53.0279,0.0004935,15.95733602,282.98217775298417,289.55994851129526,1 45388U 20019AE  26204.00002315  .00258087  37374-4  63004-3 0  9999,2 45388  53.0279 166.1043 0004935  73.7708 273.8393 15.95733602  5933
STARLINK-1283,45389,53.0332,0.0004377,15.77428189,334.79081753063565,340.6698878111629,1 45389U 20019AF  26203.60632383  .00099936  00000+0  58858-3 0  9997,2 45389  53.0332 164.2141 0004377  36.0653 324.0661 15.77428189351700
STARLINK-1284,45390,53.039,0.0004709,15.75361439,340.43759409980794,346.7681287012756,1 45390U 20019AG  26203.35894083  .00072147  00000+0  46801-3 0  9998,2 45390  53.0390 189.9514 0004709  83.3407 276.8148 15.75361439351318
STARLINK-1297,45395,53.0378,0.0003794,15.78695407,331.58935312108497,336.6826258655128,1 45395U 20019AM  26203.89630155  .00104974  00000+0  58374-3 0  9992,2 45395  53.0378 185.7515 0003794  59.5094 300.6300 15.78695407350609
STARLINK-1307,45397,53.0504,0.0001796,15.59585627,387.64009777138017,390.07080145928194,1 45397U 20019AP  26203.26374093  .00042373  00000+0  52648-3 0  9993,2 45397  53.0504 200.1221 0001796  26.0084 334.1018 15.59585627350997
STARLINK-1255,45399,53.032,0.0001586,15.69829292,358.31683294249433,360.4539750490412,1 45399U 20019AR  26203.92060496  .00061764  00000+0  50829-3 0  9991,2 45399  53.0320 161.5094 0001586  15.4021 344.7044 15.69829292351574
STARLINK-1260,45404,53.1526,0.0001905,15.41824508,439.42564418079655,442.02363046461596,1 45404U 20019AW  26203.27851378  .00037990  00000+0  88795-3 0  9990,2 45404  53.1526 218.7315 0001905 340.5659  19.5274 15.41824508350650
STARLINK-1263,45405,53.1545,0.0003756,15.38737818,447.27604045943554,452.4052172542324,1 45405U 20019AX  26203.59459873  .00036028  00000+0  93278-3 0  9993,2 45405  53.1545 219.4511 0003756 344.0367  16.0519 15.38737818350678
STARLINK-1265,45406,53.1529,0.0003041,15.42244671,437.4128728767528,441.5593512535106,1 45406U 20019AY  26203.32417504  .00037951  00000+0  87469-3 0  9991,2 45406  53.1529 218.3768 0003041  14.6982 345.4112 15.42244671350665
STARLINK-1278,45408,53.036,0.0002983,15.79816844,328.95780750438826,332.9604542560719,1 45408U 20019BA  26203.19531670  .00095922  00000+0  50794-3 0  9992,2 45408  53.0360 187.8225 0002983  64.4670 295.6659 15.79816844351051
STARLINK-1296,45412,53.1533,0.0002074,15.42373351,437.69301482247556,440.52080759684577,1 45412U 20019BE  26203.29395861  .00036851  00000+0  84614-3 0  9992,2 45412  53.1533 218.1552 0002074 358.2089   1.8909 15.42373351350661
